[{"OBJECT_NAME":"STARLINK-33943","OBJECT_ID":"2025-094W","EPOCH":"2025-12-30T05:35:14.676864","MEAN_MOTION":14.98338667,"ECCENTRICITY":0.00039165,"INCLINATION":70.002,"RA_OF_ASC_NODE":49.4055,"ARG_OF_PERICENTER":273.0738,"MEAN_ANOMALY":86.9973,"EPHEMERIS_TYPE":0,"CLASSIFICATION_TYPE":"U","NORAD_CAT_ID":63884,"ELEMENT_SET_NO":999,"REV_AT_EPOCH":3680,"BSTAR":0.00033321995,"MEAN_MOTION_DOT":3.886e-5,"MEAN_MOTION_DDOT":0},{"OBJECT_NAME":"STARLINK-33858","OBJECT_ID":"2025-094X","EPOCH":"2025-12-30T06:11:18.671136","MEAN_MOTION":14.98302479,"ECCENTRICITY":0.00026504,"INCLINATION":70.0023,"RA_OF_ASC_NODE":49.4901,"ARG_OF_PERICENTER":244.0065,"MEAN_ANOMALY":116.0822,"EPHEMERIS_TYPE":0,"CLASSIFICATION_TYPE":"U","NORAD_CAT_ID":63885,"ELEMENT_SET_NO":999,"REV_AT_EPOCH":3680,"BSTAR":-0.0024045449,"MEAN_MOTION_DOT":-0.00028646,"MEAN_MOTION_DDOT":0},{"OBJECT_NAME":"STARLINK-33885","OBJECT_ID":"2025-094Y","EPOCH":"2025-12-30T05:47:15.968256","MEAN_MOTION":14.98335729,"ECCENTRICITY":0.00032161,"INCLINATION":70.0026,"RA_OF_ASC_NODE":49.4325,"ARG_OF_PERICENTER":265.5121,"MEAN_ANOMALY":94.5671,"EPHEMERIS_TYPE":0,"CLASSIFICATION_TYPE":"U","NORAD_CAT_ID":63886,"ELEMENT_SET_NO":999,"REV_AT_EPOCH":3680,"BSTAR":0.00032196632,"MEAN_MOTION_DOT":3.751e-5,"MEAN_MOTION_DDOT":0},{"OBJECT_NAME":"STARLINK-33904","OBJECT_ID":"2025-094Z","EPOCH":"2025-12-30T05:41:29.622624","MEAN_MOTION":14.98339739,"ECCENTRICITY":0.00030415,"INCLINATION":70.0024,"RA_OF_ASC_NODE":49.4191,"ARG_OF_PERICENTER":272.5753,"MEAN_ANOMALY":87.5058,"EPHEMERIS_TYPE":0,"CLASSIFICATION_TYPE":"U","NORAD_CAT_ID":63887,"ELEMENT_SET_NO":999,"REV_AT_EPOCH":3680,"BSTAR":0.00083079496,"MEAN_MOTION_DOT":9.836e-5,"MEAN_MOTION_DDOT":0},{"OBJECT_NAME":"STARLINK-33981","OBJECT_ID":"2025-094AA","EPOCH":"2025-12-30T06:35:35.661120","MEAN_MOTION":14.98335111,"ECCENTRICITY":0.00029491,"INCLINATION":70.0023,"RA_OF_ASC_NODE":49.5466,"ARG_OF_PERICENTER":275.0535,"MEAN_ANOMALY":85.0288,"EPHEMERIS_TYPE":0,"CLASSIFICATION_TYPE":"U","NORAD_CAT_ID":63888,"ELEMENT_SET_NO":999,"REV_AT_EPOCH":3680,"BSTAR":0.00022450224,"MEAN_MOTION_DOT":2.587e-5,"MEAN_MOTION_DDOT":0},{"OBJECT_NAME":"STARLINK-33738","OBJECT_ID":"2025-094AB","EPOCH":"2025-12-30T06:17:33.312768","MEAN_MOTION":14.98340492,"ECCENTRICITY":0.00031984,"INCLINATION":70.0025,"RA_OF_ASC_NODE":49.4795,"ARG_OF_PERICENTER":259.2826,"MEAN_ANOMALY":100.7974,"EPHEMERIS_TYPE":0,"CLASSIFICATION_TYPE":"U","NORAD_CAT_ID":63889,"ELEMENT_SET_NO":999,"REV_AT_EPOCH":3702,"BSTAR":0.00066964719,"MEAN_MOTION_DOT":7.908e-5,"MEAN_MOTION_DDOT":0},{"OBJECT_NAME":"STARLINK-34116","OBJECT_ID":"2025-095A","EPOCH":"2025-12-30T07:11:45.502944","MEAN_MOTION":15.27577184,"ECCENTRICITY":0.00012143,"INCLINATION":43.0016,"RA_OF_ASC_NODE":208.2675,"ARG_OF_PERICENTER":270.809,"MEAN_ANOMALY":89.2622,"EPHEMERIS_TYPE":0,"CLASSIFICATION_TYPE":"U","NORAD_CAT_ID":63890,"ELEMENT_SET_NO":999,"REV_AT_EPOCH":3717,"BSTAR":0.0020746725,"MEAN_MOTION_DOT":0.00057268,"MEAN_MOTION_DDOT":0},{"OBJECT_NAME":"STARLINK-34123","OBJECT_ID":"2025-095B","EPOCH":"2025-12-29T23:41:20.094432","MEAN_MOTION":15.27609334,"ECCENTRICITY":4.84e-5,"INCLINATION":42.9997,"RA_OF_ASC_NODE":210.2157,"ARG_OF_PERICENTER":258.2176,"MEAN_ANOMALY":101.8622,"EPHEMERIS_TYPE":0,"CLASSIFICATION_TYPE":"U","NORAD_CAT_ID":63891,"ELEMENT_SET_NO":999,"REV_AT_EPOCH":3712,"BSTAR":0.0011462825,"MEAN_MOTION_DOT":0.00031444,"MEAN_MOTION_DDOT":0},{"OBJECT_NAME":"STARLINK-34128","OBJECT_ID":"2025-095C","EPOCH":"2025-12-29T22:58:46.686720","MEAN_MOTION":15.27612246,"ECCENTRICITY":5.981e-5,"INCLINATION":42.9926,"RA_OF_ASC_NODE":209.9885,"ARG_OF_PERICENTER":153.2311,"MEAN_ANOMALY":206.8571,"EPHEMERIS_TYPE":0,"CLASSIFICATION_TYPE":"U","NORAD_CAT_ID":63892,"ELEMENT_SET_NO":999,"REV_AT_EPOCH":3712,"BSTAR":0.0014418033,"MEAN_MOTION_DOT":0.00039666,"MEAN_MOTION_DDOT":0},{"OBJECT_NAME":"STARLINK-33972","OBJECT_ID":"2025-095D","EPOCH":"2025-12-30T07:00:41.250240","MEAN_MOTION":15.2760476,"ECCENTRICITY":8.783e-5,"INCLINATION":42.9964,"RA_OF_ASC_NODE":208.206,"ARG_OF_PERICENTER":63.0922,"MEAN_ANOMALY":297.0019,"EPHEMERIS_TYPE":0,"CLASSIFICATION_TYPE":"U","NORAD_CAT_ID":63893,"ELEMENT_SET_NO":999,"REV_AT_EPOCH":3717,"BSTAR":0.0014354237,"MEAN_MOTION_DOT":0.00039479,"MEAN_MOTION_DDOT":0},{"OBJECT_NAME":"STARLINK-33973","OBJECT_ID":"2025-095E","EPOCH":"2025-12-30T06:08:51.055872","MEAN_MOTION":15.27578755,"ECCENTRICITY":9.779e-5,"INCLINATION":42.9971,"RA_OF_ASC_NODE":207.9257,"ARG_OF_PERICENTER":294.7712,"MEAN_ANOMALY":65.3038,"EPHEMERIS_TYPE":0,"CLASSIFICATION_TYPE":"U","NORAD_CAT_ID":63894,"ELEMENT_SET_NO":999,"REV_AT_EPOCH":3717,"BSTAR":0.001082343,"MEAN_MOTION_DOT":0.0002964,"MEAN_MOTION_DDOT":0},{"OBJECT_NAME":"STARLINK-34119","OBJECT_ID":"2025-095F","EPOCH":"2025-12-29T23:30:13.411296","MEAN_MOTION":15.27618107,"ECCENTRICITY":0.00021987,"INCLINATION":43.0036,"RA_OF_ASC_NODE":210.1621,"ARG_OF_PERICENTER":277.7148,"MEAN_ANOMALY":82.3454,"EPHEMERIS_TYPE":0,"CLASSIFICATION_TYPE":"U","NORAD_CAT_ID":63895,"ELEMENT_SET_NO":999,"REV_AT_EPOCH":3712,"BSTAR":0.001134834,"MEAN_MOTION_DOT":0.00031135,"MEAN_MOTION_DDOT":0},{"OBJECT_NAME":"STARLINK-34143","OBJECT_ID":"2025-095G","EPOCH":"2025-12-29T15:02:27.269664","MEAN_MOTION":15.27612385,"ECCENTRICITY":0.0002771,"INCLINATION":43.0001,"RA_OF_ASC_NODE":211.8039,"ARG_OF_PERICENTER":280.0569,"MEAN_ANOMALY":79.997,"EPHEMERIS_TYPE":0,"CLASSIFICATION_TYPE":"U","NORAD_CAT_ID":63896,"ELEMENT_SET_NO":999,"REV_AT_EPOCH":3707,"BSTAR":0.0021600777,"MEAN_MOTION_DOT":0.00059724,"MEAN_MOTION_DDOT":0},{"OBJECT_NAME":"STARLINK-33957","OBJECT_ID":"2025-095H","EPOCH":"2025-12-28T20:55:07.130784","MEAN_MOTION":15.27610577,"ECCENTRICITY":0.00010491,"INCLINATION":42.9994,"RA_OF_ASC_NODE":216.4647,"ARG_OF_PERICENTER":255.1165,"MEAN_ANOMALY":104.957,"EPHEMERIS_TYPE":0,"CLASSIFICATION_TYPE":"U","NORAD_CAT_ID":63897,"ELEMENT_SET_NO":999,"REV_AT_EPOCH":3694,"BSTAR":0.0011214332,"MEAN_MOTION_DOT":0.00030755,"MEAN_MOTION_DDOT":0},{"OBJECT_NAME":"STARLINK-34120","OBJECT_ID":"2025-095J","EPOCH":"2025-12-29T23:46:39.754560","MEAN_MOTION":15.27604348,"ECCENTRICITY":0.00015046,"INCLINATION":42.9999,"RA_OF_ASC_NODE":209.3739,"ARG_OF_PERICENTER":268.5848,"MEAN_ANOMALY":91.4831,"EPHEMERIS_TYPE":0,"CLASSIFICATION_TYPE":"U","NORAD_CAT_ID":63898,"ELEMENT_SET_NO":999,"REV_AT_EPOCH":3713,"BSTAR":0.001173468,"MEAN_MOTION_DOT":0.00032194,"MEAN_MOTION_DDOT":0},{"OBJECT_NAME":"STARLINK-34134","OBJECT_ID":"2025-095K","EPOCH":"2025-12-30T07:06:13.968864","MEAN_MOTION":15.27547065,"ECCENTRICITY":0.00016764,"INCLINATION":42.9995,"RA_OF_ASC_NODE":208.2345,"ARG_OF_PERICENTER":53.072,"MEAN_ANOMALY":307.0285,"EPHEMERIS_TYPE":0,"CLASSIFICATION_TYPE":"U","NORAD_CAT_ID":63899,"ELEMENT_SET_NO":999,"REV_AT_EPOCH":3717,"BSTAR":0.0016107149,"MEAN_MOTION_DOT":0.00044283,"MEAN_MOTION_DDOT":0},{"OBJECT_NAME":"STARLINK-34118","OBJECT_ID":"2025-095L","EPOCH":"2025-12-30T07:15:27.547488","MEAN_MOTION":15.27577916,"ECCENTRICITY":0.00016939,"INCLINATION":43.0038,"RA_OF_ASC_NODE":208.2853,"ARG_OF_PERICENTER":280.9691,"MEAN_ANOMALY":79.097,"EPHEMERIS_TYPE":0,"CLASSIFICATION_TYPE":"U","NORAD_CAT_ID":63900,"ELEMENT_SET_NO":999,"REV_AT_EPOCH":3717,"BSTAR":0.0011652659,"MEAN_MOTION_DOT":0.00031941,"MEAN_MOTION_DDOT":0},{"OBJECT_NAME":"STARLINK-34125","OBJECT_ID":"2025-095M","EPOCH":"2025-12-30T06:55:07.140576","MEAN_MOTION":15.27623592,"ECCENTRICITY":9.856e-5,"INCLINATION":43.0015,"RA_OF_ASC_NODE":208.1702,"ARG_OF_PERICENTER":60.0589,"MEAN_ANOMALY":300.0361,"EPHEMERIS_TYPE":0,"CLASSIFICATION_TYPE":"U","NORAD_CAT_ID":63901,"ELEMENT_SET_NO":999,"REV_AT_EPOCH":3716,"BSTAR":0.0014435492,"MEAN_MOTION_DOT":0.00039728,"MEAN_MOTION_DDOT":0},{"OBJECT_NAME":"STARLINK-33955","OBJECT_ID":"2025-095N","EPOCH":"2025-12-30T06:12:32.901696","MEAN_MOTION":15.27578453,"ECCENTRICITY":0.00011274,"INCLINATION":42.9982,"RA_OF_ASC_NODE":207.9422,"ARG_OF_PERICENTER":276.5395,"MEAN_ANOMALY":83.5328,"EPHEMERIS_TYPE":0,"CLASSIFICATION_TYPE":"U","NORAD_CAT_ID":63902,"ELEMENT_SET_NO":999,"REV_AT_EPOCH":3716,"BSTAR":0.0011949075,"MEAN_MOTION_DOT":0.00032764,"MEAN_MOTION_DDOT":0},{"OBJECT_NAME":"STARLINK-34097","OBJECT_ID":"2025-095P","EPOCH":"2025-12-30T06:40:18.102720","MEAN_MOTION":15.27602299,"ECCENTRICITY":0.00011007,"INCLINATION":42.998,"RA_OF_ASC_NODE":208.0905,"ARG_OF_PERICENTER":271.1904,"MEAN_ANOMALY":88.8822,"EPHEMERIS_TYPE":0,"CLASSIFICATION_TYPE":"U","NORAD_CAT_ID":63903,"ELEMENT_SET_NO":999,"REV_AT_EPOCH":3716,"BSTAR":0.0010954738,"MEAN_MOTION_DOT":0.00030026,"MEAN_MOTION_DDOT":0},{"OBJECT_NAME":"STARLINK-34092","OBJECT_ID":"2025-095Q","EPOCH":"2025-12-29T20:23:46.182912","MEAN_MOTION":15.27614984,"ECCENTRICITY":0.00015412,"INCLINATION":43.0004,"RA_OF_ASC_NODE":210.9056,"ARG_OF_PERICENTER":263.4723,"MEAN_ANOMALY":96.5954,"EPHEMERIS_TYPE":0,"CLASSIFICATION_TYPE":"U","NORAD_CAT_ID":63904,"ELEMENT_SET_NO":999,"REV_AT_EPOCH":3709,"BSTAR":0.0011526773,"MEAN_MOTION_DOT":0.00031627,"MEAN_MOTION_DDOT":0},{"OBJECT_NAME":"STARLINK-34114","OBJECT_ID":"2025-095R","EPOCH":"2025-12-29T23:43:11.056224","MEAN_MOTION":15.27615411,"ECCENTRICITY":3.497e-5,"INCLINATION":42.9996,"RA_OF_ASC_NODE":210.2217,"ARG_OF_PERICENTER":247.3398,"MEAN_ANOMALY":112.7417,"EPHEMERIS_TYPE":0,"CLASSIFICATION_TYPE":"U","NORAD_CAT_ID":63905,"ELEMENT_SET_NO":999,"REV_AT_EPOCH":3711,"BSTAR":0.0013276708,"MEAN_MOTION_DOT":0.00036493,"MEAN_MOTION_DDOT":0},{"OBJECT_NAME":"STARLINK-33770","OBJECT_ID":"2025-095S","EPOCH":"2025-12-30T06:25:29.964288","MEAN_MOTION":15.27605124,"ECCENTRICITY":0.00010973,"INCLINATION":42.9989,"RA_OF_ASC_NODE":208.0096,"ARG_OF_PERICENTER":264.909,"MEAN_ANOMALY":95.1637,"EPHEMERIS_TYPE":0,"CLASSIFICATION_TYPE":"U","NORAD_CAT_ID":63906,"ELEMENT_SET_NO":999,"REV_AT_EPOCH":3716,"BSTAR":0.00095445054,"MEAN_MOTION_DOT":0.00026115,"MEAN_MOTION_DDOT":0}]
